{
  "type": "FeatureCollection",
  "features": [
    {
      "type": "Feature",
      "properties": {
        "norad_id": 44333,
        "name": "AT&T T-16",
        "group": "intelsat",
        "lat": 0.027696226971470846,
        "lon": 162.33893340686654,
        "alt_km": 35781.964700733806,
        "timestamp": "2025-12-21T11:31:42.510366+00:00",
        "meta_object_name": "AT&T T-16",
        "meta_object_id": "2019-034A",
        "meta_epoch": "2025-12-20T14:27:46.526976",
        "meta_mean_motion": 1.00263761,
        "meta_eccentricity": 0.0001552,
        "meta_inclination": 0.019,
        "meta_ra_of_asc_node": 58.344,
        "meta_arg_of_pericenter": 92.0528,
        "meta_mean_anomaly": 55.1236,
        "meta_ephemeris_type": 0,
        "meta_classification_type": "U",
        "meta_norad_cat_id": 44333,
        "meta_element_set_no": 999,
        "meta_rev_at_epoch": 2384,
        "meta_bstar": 0,
        "meta_mean_motion_dot": -9.1e-07,
        "meta_mean_motion_ddot": 0,
        "tle_line1": "1 44333U 19034A   25354.60262184 -.00000091  00000+0  00000+0 0  9991",
        "tle_line2": "2 44333   0.0190  58.3440 0001552  92.0528  55.1236  1.00263761 23847"
      },
      "geometry": {
        "type": "Point",
        "coordinates": [
          162.33893340686654,
          0.027696226971470846
        ]
      }
    },
    {
      "type": "Feature",
      "properties": {
        "norad_id": 44476,
        "name": "INTELSAT 39 (IS-39)",
        "group": "intelsat",
        "lat": -0.015976481765579437,
        "lon": -34.839142459252315,
        "alt_km": 35790.86884033001,
        "timestamp": "2025-12-21T11:31:42.510378+00:00",
        "meta_object_name": "INTELSAT 39 (IS-39)",
        "meta_object_id": "2019-049B",
        "meta_epoch": "2025-12-21T03:13:13.989216",
        "meta_mean_motion": 1.00270691,
        "meta_eccentricity": 0.000108,
        "meta_inclination": 0.0007,
        "meta_ra_of_asc_node": 359.8011,
        "meta_arg_of_pericenter": 136.8582,
        "meta_mean_anomaly": 63.5532,
        "meta_ephemeris_type": 0,
        "meta_classification_type": "U",
        "meta_norad_cat_id": 44476,
        "meta_element_set_no": 999,
        "meta_rev_at_epoch": 2334,
        "meta_bstar": 0,
        "meta_mean_motion_dot": 5.7e-07,
        "meta_mean_motion_ddot": 0,
        "tle_line1": "1 44476U 19049B   25355.13418969  .00000057  00000+0  00000+0 0  9999",
        "tle_line2": "2 44476   0.0007 359.8011 0001080 136.8582  63.5532  1.00270691 23345"
      },
      "geometry": {
        "type": "Point",
        "coordinates": [
          -34.839142459252315,
          -0.015976481765579437
        ]
      }
    },
    {
      "type": "Feature",
      "properties": {
        "norad_id": 46114,
        "name": "GALAXY 30 (G-30)",
        "group": "intelsat",
        "lat": 0.02543821568104037,
        "lon": 138.22450956592326,
        "alt_km": 35791.48931446168,
        "timestamp": "2025-12-21T11:31:42.510391+00:00",
        "meta_object_name": "GALAXY 30 (G-30)",
        "meta_object_id": "2020-056C",
        "meta_epoch": "2025-12-21T00:37:13.929888",
        "meta_mean_motion": 1.00273357,
        "meta_eccentricity": 0.0002029,
        "meta_inclination": 0.0178,
        "meta_ra_of_asc_node": 349.0054,
        "meta_arg_of_pericenter": 282.3653,
        "meta_mean_anomaly": 62.8096,
        "meta_ephemeris_type": 0,
        "meta_classification_type": "U",
        "meta_norad_cat_id": 46114,
        "meta_element_set_no": 999,
        "meta_rev_at_epoch": 1950,
        "meta_bstar": 0,
        "meta_mean_motion_dot": 6e-07,
        "meta_mean_motion_ddot": 0,
        "tle_line1": "1 46114U 20056C   25355.02585567  .00000060  00000+0  00000+0 0  9991",
        "tle_line2": "2 46114   0.0178 349.0054 0002029 282.3653  62.8096  1.00273357 19505"
      },
      "geometry": {
        "type": "Point",
        "coordinates": [
          138.22450956592326,
          0.02543821568104037
        ]
      }
    },
    {
      "type": "Feature",
      "properties": {
        "norad_id": 54026,
        "name": "GALAXY 33 (G-33)",
        "group": "intelsat",
        "lat": 0.0350180765009919,
        "lon": 130.20728040774955,
        "alt_km": 35791.1765651039,
        "timestamp": "2025-12-21T11:31:42.510404+00:00",
        "meta_object_name": "GALAXY 33 (G-33)",
        "meta_object_id": "2022-128A",
        "meta_epoch": "2025-12-21T02:17:34.319040",
        "meta_mean_motion": 1.00271436,
        "meta_eccentricity": 0.0001551,
        "meta_inclination": 0.0167,
        "meta_ra_of_asc_node": 47.8689,
        "meta_arg_of_pericenter": 222.3092,
        "meta_mean_anomaly": 81.136,
        "meta_ephemeris_type": 0,
        "meta_classification_type": "U",
        "meta_norad_cat_id": 54026,
        "meta_element_set_no": 999,
        "meta_rev_at_epoch": 1195,
        "meta_bstar": 0,
        "meta_mean_motion_dot": 1.02e-06,
        "meta_mean_motion_ddot": 0,
        "tle_line1": "1 54026U 22128A   25355.09553610  .00000102  00000+0  00000+0 0  9992",
        "tle_line2": "2 54026   0.0167  47.8689 0001551 222.3092  81.1360  1.00271436 11956"
      },
      "geometry": {
        "type": "Point",
        "coordinates": [
          130.20728040774955,
          0.0350180765009919
        ]
      }
    },
    {
      "type": "Feature",
      "properties": {
        "norad_id": 54027,
        "name": "GALAXY 34 (G-34)",
        "group": "intelsat",
        "lat": 0.04130480586393163,
        "lon": 134.24820255206728,
        "alt_km": 35791.965081231414,
        "timestamp": "2025-12-21T11:31:42.510416+00:00",
        "meta_object_name": "GALAXY 34 (G-34)",
        "meta_object_id": "2022-128B",
        "meta_epoch": "2025-12-21T00:36:06.537024",
        "meta_mean_motion": 1.00268046,
        "meta_eccentricity": 0.0001836,
        "meta_inclination": 0.0236,
        "meta_ra_of_asc_node": 14.3694,
        "meta_arg_of_pericenter": 248.5905,
        "meta_mean_anomaly": 66.9705,
        "meta_ephemeris_type": 0,
        "meta_classification_type": "U",
        "meta_norad_cat_id": 54027,
        "meta_element_set_no": 999,
        "meta_rev_at_epoch": 1212,
        "meta_bstar": 0,
        "meta_mean_motion_dot": 0,
        "meta_mean_motion_ddot": 0,
        "tle_line1": "1 54027U 22128B   25355.02507566  .00000000  00000+0  00000+0 0  9992",
        "tle_line2": "2 54027   0.0236  14.3694 0001836 248.5905  66.9705  1.00268046 12125"
      },
      "geometry": {
        "type": "Point",
        "coordinates": [
          134.24820255206728,
          0.04130480586393163
        ]
      }
    },
    {
      "type": "Feature",
      "properties": {
        "norad_id": 54243,
        "name": "GALAXY 31 (G-31)",
        "group": "intelsat",
        "lat": 0.024394118107451283,
        "lon": 142.20657407135786,
        "alt_km": 35790.5098096095,
        "timestamp": "2025-12-21T11:31:42.510428+00:00",
        "meta_object_name": "GALAXY 31 (G-31)",
        "meta_object_id": "2022-153A",
        "meta_epoch": "2025-12-21T04:32:38.608800",
        "meta_mean_motion": 1.00271219,
        "meta_eccentricity": 0.0001379,
        "meta_inclination": 0.0225,
        "meta_ra_of_asc_node": 87.4466,
        "meta_arg_of_pericenter": 192.028,
        "meta_mean_anomaly": 117.6986,
        "meta_ephemeris_type": 0,
        "meta_classification_type": "U",
        "meta_norad_cat_id": 54243,
        "meta_element_set_no": 999,
        "meta_rev_at_epoch": 534,
        "meta_bstar": 0,
        "meta_mean_motion_dot": 3.6e-07,
        "meta_mean_motion_ddot": 0,
        "tle_line1": "1 54243U 22153A   25355.18933575  .00000036  00000+0  00000+0 0  9999",
        "tle_line2": "2 54243   0.0225  87.4466 0001379 192.0280 117.6986  1.00271219  5349"
      },
      "geometry": {
        "type": "Point",
        "coordinates": [
          142.20657407135786,
          0.024394118107451283
        ]
      }
    },
    {
      "type": "Feature",
      "properties": {
        "norad_id": 54244,
        "name": "GALAXY 32 (G-32)",
        "group": "intelsat",
        "lat": -0.0031174310684320924,
        "lon": 172.20739912143205,
        "alt_km": 35793.36851974839,
        "timestamp": "2025-12-21T11:31:42.510440+00:00",
        "meta_object_name": "GALAXY 32 (G-32)",
        "meta_object_id": "2022-153B",
        "meta_epoch": "2025-12-21T02:29:33.172224",
        "meta_mean_motion": 1.00270567,
        "meta_eccentricity": 0.0001947,
        "meta_inclination": 0.0109,
        "meta_ra_of_asc_node": 336.7866,
        "meta_arg_of_pericenter": 343.2976,
        "meta_mean_anomaly": 76.2353,
        "meta_ephemeris_type": 0,
        "meta_classification_type": "U",
        "meta_norad_cat_id": 54244,
        "meta_element_set_no": 999,
        "meta_rev_at_epoch": 1135,
        "meta_bstar": 0,
        "meta_mean_motion_dot": -1.51e-06,
        "meta_mean_motion_ddot": 0,
        "tle_line1": "1 54244U 22153B   25355.10385616 -.00000151  00000+0  00000+0 0  9998",
        "tle_line2": "2 54244   0.0109 336.7866 0001947 343.2976  76.2353  1.00270567 11359"
      },
      "geometry": {
        "type": "Point",
        "coordinates": [
          172.20739912143205,
          -0.0031174310684320924
        ]
      }
    }
  ]
}